CCSDS_OMM_VERS = 2.0
CREATION_DATE  = 
ORIGINATOR     = 

OBJECT_NAME    = STARLINK-36192
OBJECT_ID      = 2025-293X
CENTER_NAME    = EARTH
REF_FRAME      = TEME
TIME_SYSTEM    = UTC
MEAN_ELEMENT_THEORY = SGP/SGP4

EPOCH          = 2025-12-20T14:00:03.000384
MEAN_MOTION    = 15.92149364
ECCENTRICITY   = .0004027
INCLINATION    = 69.9932
RA_OF_ASC_NODE = 300.9584
ARG_OF_PERICENTER = 268.6530
MEAN_ANOMALY   = 98.6115

EPHEMERIS_TYPE = 0
CLASSIFICATION_TYPE = U
NORAD_CAT_ID   = 67024
ELEMENT_SET_NO = 999
REV_AT_EPOCH   = 149
BSTAR          = -.4120669E-2
MEAN_MOTION_DOT = -.1374595E-1
MEAN_MOTION_DDOT = .5445547E-3

CCSDS_OMM_VERS = 2.0
CREATION_DATE  = 
ORIGINATOR     = 

OBJECT_NAME    = STARLINK-36178
OBJECT_ID      = 2025-293Y
CENTER_NAME    = EARTH
REF_FRAME      = TEME
TIME_SYSTEM    = UTC
MEAN_ELEMENT_THEORY = SGP/SGP4

EPOCH          = 2025-12-20T14:00:03.000384
MEAN_MOTION    = 15.92190939
ECCENTRICITY   = .00040352
INCLINATION    = 69.9932
RA_OF_ASC_NODE = 300.9555
ARG_OF_PERICENTER = 268.8889
MEAN_ANOMALY   = 100.6676

EPHEMERIS_TYPE = 0
CLASSIFICATION_TYPE = U
NORAD_CAT_ID   = 67025
ELEMENT_SET_NO = 999
REV_AT_EPOCH   = 149
BSTAR          = -.41388933E-2
MEAN_MOTION_DOT = -.1383552E-1
MEAN_MOTION_DDOT = .5513481E-3

CCSDS_OMM_VERS = 2.0
CREATION_DATE  = 
ORIGINATOR     = 

OBJECT_NAME    = STARLINK-36176
OBJECT_ID      = 2025-293Z
CENTER_NAME    = EARTH
REF_FRAME      = TEME
TIME_SYSTEM    = UTC
MEAN_ELEMENT_THEORY = SGP/SGP4

EPOCH          = 2025-12-20T14:00:03.000384
MEAN_MOTION    = 15.92272329
ECCENTRICITY   = .00040279
INCLINATION    = 69.9928
RA_OF_ASC_NODE = 300.9496
ARG_OF_PERICENTER = 270.5408
MEAN_ANOMALY   = 104.0886

EPHEMERIS_TYPE = 0
CLASSIFICATION_TYPE = U
NORAD_CAT_ID   = 67026
ELEMENT_SET_NO = 999
REV_AT_EPOCH   = 149
BSTAR          = -.41486063E-2
MEAN_MOTION_DOT = -.1392546E-1
MEAN_MOTION_DDOT = .55843221E-3

CCSDS_OMM_VERS = 2.0
CREATION_DATE  = 
ORIGINATOR     = 

OBJECT_NAME    = STARLINK-36171
OBJECT_ID      = 2025-293AA
CENTER_NAME    = EARTH
REF_FRAME      = TEME
TIME_SYSTEM    = UTC
MEAN_ELEMENT_THEORY = SGP/SGP4

EPOCH          = 2025-12-20T14:00:03.000384
MEAN_MOTION    = 15.92265259
ECCENTRICITY   = .00040383
INCLINATION    = 69.9928
RA_OF_ASC_NODE = 300.9528
ARG_OF_PERICENTER = 270.3798
MEAN_ANOMALY   = 102.0783

EPHEMERIS_TYPE = 0
CLASSIFICATION_TYPE = U
NORAD_CAT_ID   = 67027
ELEMENT_SET_NO = 999
REV_AT_EPOCH   = 149
BSTAR          = -.42557988E-2
MEAN_MOTION_DOT = -.1427627E-1
MEAN_MOTION_DDOT = .5846325E-3

CCSDS_OMM_VERS = 2.0
CREATION_DATE  = 
ORIGINATOR     = 

OBJECT_NAME    = STARLINK-36132
OBJECT_ID      = 2025-293AB
CENTER_NAME    = EARTH
REF_FRAME      = TEME
TIME_SYSTEM    = UTC
MEAN_ELEMENT_THEORY = SGP/SGP4

EPOCH          = 2025-12-20T14:00:03.000384
MEAN_MOTION    = 15.92356492
ECCENTRICITY   = .00040912
INCLINATION    = 69.9932
RA_OF_ASC_NODE = 300.9434
ARG_OF_PERICENTER = 270.0886
MEAN_ANOMALY   = 109.6663

EPHEMERIS_TYPE = 0
CLASSIFICATION_TYPE = U
NORAD_CAT_ID   = 67028
ELEMENT_SET_NO = 999
REV_AT_EPOCH   = 149
BSTAR          = -.41580562E-2
MEAN_MOTION_DOT = -.1401743E-1
MEAN_MOTION_DDOT = .56573178E-3

CCSDS_OMM_VERS = 2.0
CREATION_DATE  = 
ORIGINATOR     = 

OBJECT_NAME    = STARLINK-36190
OBJECT_ID      = 2025-293AC
CENTER_NAME    = EARTH
REF_FRAME      = TEME
TIME_SYSTEM    = UTC
MEAN_ELEMENT_THEORY = SGP/SGP4

EPOCH          = 2025-12-20T14:00:03.000384
MEAN_MOTION    = 15.92313357
ECCENTRICITY   = .00040172
INCLINATION    = 69.9932
RA_OF_ASC_NODE = 300.9471
ARG_OF_PERICENTER = 269.3486
MEAN_ANOMALY   = 107.5578

EPHEMERIS_TYPE = 0
CLASSIFICATION_TYPE = U
NORAD_CAT_ID   = 67029
ELEMENT_SET_NO = 999
REV_AT_EPOCH   = 149
BSTAR          = -.41571659E-2
MEAN_MOTION_DOT = -.1398315E-1
MEAN_MOTION_DDOT = .56293919E-3

CCSDS_OMM_VERS = 2.0
CREATION_DATE  = 
ORIGINATOR     = 

OBJECT_NAME    = STARLINK-36138
OBJECT_ID      = 2025-294A
CENTER_NAME    = EARTH
REF_FRAME      = TEME
TIME_SYSTEM    = UTC
MEAN_ELEMENT_THEORY = SGP/SGP4

EPOCH          = 2025-12-20T14:00:03.000384
MEAN_MOTION    = 15.87570375
ECCENTRICITY   = .00015972
INCLINATION    = 42.9996
RA_OF_ASC_NODE = 134.2388
ARG_OF_PERICENTER = 271.5842
MEAN_ANOMALY   = 61.3886

EPHEMERIS_TYPE = 0
CLASSIFICATION_TYPE = U
NORAD_CAT_ID   = 67030
ELEMENT_SET_NO = 999
REV_AT_EPOCH   = 137
BSTAR          = -.56097411E-2
MEAN_MOTION_DOT = -.1355206E-1
MEAN_MOTION_DDOT = 0

CCSDS_OMM_VERS = 2.0
CREATION_DATE  = 
ORIGINATOR     = 

OBJECT_NAME    = STARLINK-36150
OBJECT_ID      = 2025-294B
CENTER_NAME    = EARTH
REF_FRAME      = TEME
TIME_SYSTEM    = UTC
MEAN_ELEMENT_THEORY = SGP/SGP4

EPOCH          = 2025-12-20T14:00:03.000384
MEAN_MOTION    = 15.87606948
ECCENTRICITY   = .00016911
INCLINATION    = 42.9997
RA_OF_ASC_NODE = 134.2345
ARG_OF_PERICENTER = 273.3724
MEAN_ANOMALY   = 61.1931

EPHEMERIS_TYPE = 0
CLASSIFICATION_TYPE = U
NORAD_CAT_ID   = 67031
ELEMENT_SET_NO = 999
REV_AT_EPOCH   = 156
BSTAR          = -.56089831E-2
MEAN_MOTION_DOT = -.1357299E-1
MEAN_MOTION_DDOT = 0

CCSDS_OMM_VERS = 2.0
CREATION_DATE  = 
ORIGINATOR     = 

OBJECT_NAME    = STARLINK-36131
OBJECT_ID      = 2025-294C
CENTER_NAME    = EARTH
REF_FRAME      = TEME
TIME_SYSTEM    = UTC
MEAN_ELEMENT_THEORY = SGP/SGP4

EPOCH          = 2025-12-20T14:00:03.000384
MEAN_MOTION    = 15.87677151
ECCENTRICITY   = .00016346
INCLINATION    = 42.9997
RA_OF_ASC_NODE = 134.2243
ARG_OF_PERICENTER = 267.6416
MEAN_ANOMALY   = 70.9532

EPHEMERIS_TYPE = 0
CLASSIFICATION_TYPE = U
NORAD_CAT_ID   = 67032
ELEMENT_SET_NO = 999
REV_AT_EPOCH   = 137
BSTAR          = -.56480235E-2
MEAN_MOTION_DOT = -.136974E-1
MEAN_MOTION_DDOT = 0

CCSDS_OMM_VERS = 2.0
CREATION_DATE  = 
ORIGINATOR     = 

OBJECT_NAME    = STARLINK-36137
OBJECT_ID      = 2025-294D
CENTER_NAME    = EARTH
REF_FRAME      = TEME
TIME_SYSTEM    = UTC
MEAN_ELEMENT_THEORY = SGP/SGP4

EPOCH          = 2025-12-20T14:00:03.000384
MEAN_MOTION    = 15.87641018
ECCENTRICITY   = .00016788
INCLINATION    = 42.9997
RA_OF_ASC_NODE = 134.2297
ARG_OF_PERICENTER = 269.9098
MEAN_ANOMALY   = 66.6483

EPHEMERIS_TYPE = 0
CLASSIFICATION_TYPE = U
NORAD_CAT_ID   = 67033
ELEMENT_SET_NO = 999
REV_AT_EPOCH   = 137
BSTAR          = -.5613964E-2
MEAN_MOTION_DOT = -.1360383E-1
MEAN_MOTION_DDOT = 0

CCSDS_OMM_VERS = 2.0
CREATION_DATE  = 
ORIGINATOR     = 

OBJECT_NAME    = STARLINK-36140
OBJECT_ID      = 2025-294E
CENTER_NAME    = EARTH
REF_FRAME      = TEME
TIME_SYSTEM    = UTC
MEAN_ELEMENT_THEORY = SGP/SGP4

EPOCH          = 2025-12-20T14:00:03.000384
MEAN_MOTION    = 15.87703639
ECCENTRICITY   = .0001718
INCLINATION    = 42.9997
RA_OF_ASC_NODE = 134.2190
ARG_OF_PERICENTER = 266.9421
MEAN_ANOMALY   = 73.8771

EPHEMERIS_TYPE = 0
CLASSIFICATION_TYPE = U
NORAD_CAT_ID   = 67034
ELEMENT_SET_NO = 999
REV_AT_EPOCH   = 137
BSTAR          = -.56504803E-2
MEAN_MOTION_DOT = -.1371923E-1
MEAN_MOTION_DDOT = 0

CCSDS_OMM_VERS = 2.0
CREATION_DATE  = 
ORIGINATOR     = 

OBJECT_NAME    = STARLINK-36085
OBJECT_ID      = 2025-294F
CENTER_NAME    = EARTH
REF_FRAME      = TEME
TIME_SYSTEM    = UTC
MEAN_ELEMENT_THEORY = SGP/SGP4

EPOCH          = 2025-12-20T14:00:03.000384
MEAN_MOTION    = 15.87768049
ECCENTRICITY   = .0001651
INCLINATION    = 42.9999
RA_OF_ASC_NODE = 134.2073
ARG_OF_PERICENTER = 270.2834
MEAN_ANOMALY   = 75.0436

EPHEMERIS_TYPE = 0
CLASSIFICATION_TYPE = U
NORAD_CAT_ID   = 67035
ELEMENT_SET_NO = 999
REV_AT_EPOCH   = 137
BSTAR          = -.5729988E-2
MEAN_MOTION_DOT = -.1392635E-1
MEAN_MOTION_DDOT = 0

