STARLINK-36192          
1 67024U 25293X   25354.58336806 -.01374595  54455-3 -41207-2 0  9996
2 67024  69.9932 300.9584 0004027 268.6530  98.6115 15.92149364  1499
STARLINK-36178          
1 67025U 25293Y   25354.58336806 -.01383552  55135-3 -41389-2 0  9997
2 67025  69.9932 300.9555 0004035 268.8889 100.6676 15.92190939  1496
STARLINK-36176          
1 67026U 25293Z   25354.58336806 -.01392546  55843-3 -41486-2 0  9995
2 67026  69.9928 300.9496 0004027 270.5408 104.0886 15.92272329  1499
STARLINK-36171          
1 67027U 25293AA  25354.58336806 -.01427627  58463-3 -42558-2 0  9997
2 67027  69.9928 300.9528 0004038 270.3798 102.0783 15.92265259  1496
STARLINK-36132          
1 67028U 25293AB  25354.58336806 -.01401743  56573-3 -41581-2 0  9994
2 67028  69.9932 300.9434 0004091 270.0886 109.6663 15.92356492  1492
STARLINK-36190          
1 67029U 25293AC  25354.58336806 -.01398315  56294-3 -41572-2 0  9995
2 67029  69.9932 300.9471 0004017 269.3486 107.5578 15.92313357  1494
STARLINK-36138          
1 67030U 25294A   25354.58336806 -.01355206  00000+0 -56097-2 0  9998
2 67030  42.9996 134.2388 0001597 271.5842  61.3886 15.87570375  1378
STARLINK-36150          
1 67031U 25294B   25354.58336806 -.01357299  00000+0 -56090-2 0  9996
2 67031  42.9997 134.2345 0001691 273.3724  61.1931 15.87606948  1563
STARLINK-36131          
1 67032U 25294C   25354.58336806 -.01369740  00000+0 -56480-2 0  9994
2 67032  42.9997 134.2243 0001634 267.6416  70.9532 15.87677151  1370
STARLINK-36137          
1 67033U 25294D   25354.58336806 -.01360383  00000+0 -56140-2 0  9992
2 67033  42.9997 134.2297 0001678 269.9098  66.6483 15.87641018  1379
STARLINK-36140          
1 67034U 25294E   25354.58336806 -.01371923  00000+0 -56505-2 0  9990
2 67034  42.9997 134.2190 0001718 266.9421  73.8771 15.87703639  1372
STARLINK-36085          
1 67035U 25294F   25354.58336806 -.01392635  00000+0 -57300-2 0  9998
2 67035  42.9999 134.2073 0001651 270.2834  75.0436 15.87768049  1375
